NORAD_CAT_ID,OBJECT_NAME,OBJECT_TYPE,EPOCH,MEAN_MOTION,ECCENTRICITY,INCLINATION,RA_OF_ASC_NODE,ARG_OF_PERICENTER,MEAN_ANOMALY,BSTAR,MEAN_MOTION_DOT,MEAN_MOTION_DDOT,TLE_LINE0,TLE_LINE1,TLE_LINE2,SEMIMAJOR_AXIS,PERIOD,APOGEE,PERIGEE,DECAYED
53161.0,STARLINK-4055,PAYLOAD,2022-10-10 14:00:01,15.08882694,0.0001863,53.2193,358.1008,53.9942,273.0708,-0.0076026,-0.00119426,0.0,0 STARLINK-4055,1 53161U 22083AF  22283.58334491 -.00119426  00000-0 -76026-2 0  9993,2 53161  53.2193 358.1008 0001863  53.9942 273.0708 15.08882694  1308,6917.75,95.435,540.904,538.326,0.0
53161.0,STARLINK-4055,PAYLOAD,2022-10-10 22:00:01,15.08964219,0.0001754999999999,53.2189,356.6028,48.6674,290.0954,-0.021277,-0.00325043,0.0,0 STARLINK-4055,1 53161U 22083AF  22283.91668981 -.00325043  00000-0 -21277-1 0  9995,2 53161  53.2189 356.6028 0001755  48.6674 290.0954 15.08964219  1307,6917.501,95.43,540.58,538.1519999999998,0.0
53161.0,STARLINK-4055,PAYLOAD,2022-10-11 06:00:00,15.08812474,0.0001575,53.2196,355.1041,53.0302,297.2399,0.001206,0.00018943,0.0,0 STARLINK-4055,1 53161U 22083AF  22284.25001157  .00018943  00000-0  12060-2 0  9996,2 53161  53.2196 355.1041 0001575  53.0302 297.2399 15.08812474 13975,6917.965,95.439,540.919,538.74,0.0
53161.0,STARLINK-4055,PAYLOAD,2022-10-11 14:00:01,15.08786344,0.0001781,53.2182,353.6138,49.2104,312.6326,0.0049717,0.00079614,0.0,0 STARLINK-4055,1 53161U 22083AF  22284.58334491  .00079614  00000-0  49717-2 0  9993,2 53161  53.2182 353.6138 0001781  49.2104 312.6326 15.08786344  1308,6918.044,95.441,541.1419999999998,538.677,0.0
53161.0,STARLINK-4055,PAYLOAD,2022-10-11 22:00:00,15.0883104,0.0001679,53.2197,352.1112,49.8594,323.5269,-0.0016359999999999,-0.00026224,0.0,0 STARLINK-4055,1 53161U 22083AF  22284.91667824 -.00026224  00000-0 -16360-2 0  9998,2 53161  53.2197 352.1112 0001679  49.8594 323.5269 15.08831040 14074,6917.908,95.438,540.934,538.611,0.0
53161.0,STARLINK-4055,PAYLOAD,2022-10-12 14:00:01,15.0881878,0.000183,53.2188,349.1231,48.6589,347.898,0.0050581,0.00081092,0.0,0 STARLINK-4055,1 53161U 22083AF  22285.58334491  .00081092  00000-0  50581-2 0  9998,2 53161  53.2188 349.1231 0001830  48.6589 347.8980 15.08818780  1309,6917.945,95.439,541.076,538.544,0.0
53161.0,STARLINK-4055,PAYLOAD,2022-10-12 22:00:00,15.08891006,0.0001505,53.2181,347.6268,50.8279,357.3309,-0.0052473999999999,-0.00082955,0.0,0 STARLINK-4055,1 53161U 22083AF  22285.91667824 -.00082955  00000-0 -52474-2 0  9998,2 53161  53.2181 347.6268 0001505  50.8279 357.3309 15.08891006 14223,6917.724,95.434,540.631,538.548,0.0
53161.0,STARLINK-4055,PAYLOAD,2022-10-13 14:00:01,15.08959514,0.0001829,53.218,344.6353,48.8222,22.4696,-0.010244,-0.00160244,0.0,0 STARLINK-4055,1 53161U 22083AF  22286.58334491 -.00160244  00000-0 -10244-1 0  9999,2 53161  53.2180 344.6353 0001829  48.8222  22.4696 15.08959514  1301,6917.515,95.43,540.645,538.115,0.0
53161.0,STARLINK-4055,PAYLOAD,2022-10-13 20:00:01,15.08836672,0.0001656,53.2174,343.5128,51.2041,298.9245,-6.9266e-05,-1.39e-05,0.0,0 STARLINK-4055,1 53161U 22083AF  22286.83335648 -.00001390  00000-0 -69266-4 0  9999,2 53161  53.2174 343.5128 0001656  51.2041 298.9245 15.08836672 14366,6917.891,95.438,540.901,538.61,0.0
53161.0,STARLINK-4055,PAYLOAD,2022-10-13 22:00:00,15.08836706,0.000165,53.2175,343.1384,51.7348,31.2288,-2.2848e-05,-6.52e-06,0.0,0 STARLINK-4055,1 53161U 22083AF  22286.91667824 -.00000652  00000-0 -22848-4 0  9997,2 53161  53.2175 343.1384 0001650  51.7348  31.2288 15.08836706  1309,6917.89,95.438,540.8969999999998,538.614,0.0
53161.0,STARLINK-4055,PAYLOAD,2022-10-14 14:00:01,15.08832098,0.0001865999999999,53.218,340.1463,42.1405,64.0092,0.00049369,7.576e-05,0.0,0 STARLINK-4055,1 53161U 22083AF  22287.58334491  .00007576  00000-0  49369-3 0  9998,2 53161  53.2180 340.1463 0001866  42.1405  64.0092 15.08832098  1304,6917.905,95.438,541.06,538.479,0.0
53161.0,STARLINK-4055,PAYLOAD,2022-10-14 22:00:00,15.08871623,0.0001634,53.2182,338.6485,45.1112,72.6117,-0.0034012,-0.00054059,0.0,0 STARLINK-4055,1 53161U 22083AF  22287.91667824 -.00054059  00000-0 -34012-2 0  9992,2 53161  53.2182 338.6485 0001634  45.1112  72.6117 15.08871623 14521,6917.784000000002,95.436,540.779,538.518,0.0
53161.0,STARLINK-4055,PAYLOAD,2022-10-15 14:00:01,15.08834971,0.0001998,53.2203,335.6529,44.7177,96.2318,0.0018105,0.0002863999999999,0.0,0 STARLINK-4055,1 53161U 22083AF  22288.58334491  .00028640  00000-0  18105-2 0  9997,2 53161  53.2203 335.6529 0001998  44.7177  96.2318 15.08834971  1302,6917.896,95.438,541.143,538.379,0.0
53161.0,STARLINK-4055,PAYLOAD,2022-10-15 22:00:01,15.08833366,0.0001708,53.2204,334.1548,46.4587,106.1661,-0.0020085,-0.00032106,0.0,0 STARLINK-4055,1 53161U 22083AF  22288.91668981 -.00032106  00000-0 -20085-2 0  9992,2 53161  53.2204 334.1548 0001708  46.4587 106.1661 15.08833366 14674,6917.901,95.438,540.947,538.5840000000002,0.0
53161.0,STARLINK-4055,PAYLOAD,2022-10-16 14:00:01,15.08804078,0.0001876999999999,53.2197,331.1647,40.366,135.3446,0.0037281999999999,0.00059489,0.0,0 STARLINK-4055,1 53161U 22083AF  22289.58334491  .00059489  00000-0  37282-2 0  9990,2 53161  53.2197 331.1647 0001877  40.3660 135.3446 15.08804078 14778,6917.99,95.44,541.154,538.557,0.0
53161.0,STARLINK-4055,PAYLOAD,2022-10-16 22:00:00,15.08816694,0.0001606,53.2199,329.6667,44.0706,143.2177,0.00028015,4.171e-05,0.0,0 STARLINK-4055,1 53161U 22083AF  22289.91667824  .00004171  00000-0  28015-3 0  9999,2 53161  53.2199 329.6667 0001606  44.0706 143.2177 15.08816694 14828,6917.9519999999975,95.439,540.928,538.706,0.0
53161.0,STARLINK-4055,PAYLOAD,2022-10-17 14:00:01,15.0881884,0.0001835,53.2194,326.676,39.6491,170.8038,0.0035010999999999,0.00055842,0.0,0 STARLINK-4055,1 53161U 22083AF  22290.58334491  .00055842  00000-0  35011-2 0  9999,2 53161  53.2194 326.6760 0001835  39.6491 170.8038 15.08818840  1305,6917.945,95.439,541.08,538.5409999999998,0.0
53161.0,STARLINK-4055,PAYLOAD,2022-10-17 22:00:00,15.08836077,0.0001657,53.2195,325.1779,46.4405,175.5952,-0.00047864,-7.897e-05,0.0,0 STARLINK-4055,1 53161U 22083AF  22290.91667824 -.00007897  00000-0 -47864-3 0  9994,2 53161  53.2195 325.1779 0001657  46.4405 175.5952 15.08836077  1302,6917.892,95.438,540.904,538.611,0.0
53161.0,STARLINK-4055,PAYLOAD,2022-10-18 06:00:00,15.08798383,0.0001709,53.2189,323.6836,49.043,184.5839,0.0078279,0.00126392,0.0,0 STARLINK-4055,1 53161U 22083AF  22291.25001157  .00126392  00000-0  78279-2 0  9996,2 53161  53.2189 323.6836 0001709  49.0430 184.5839 15.08798383 15022,6918.0080000000025,95.44,541.055,538.69,0.0
53161.0,STARLINK-4055,PAYLOAD,2022-10-18 14:00:01,15.08821921,0.000193,53.2193,322.1868,43.9304,201.2845,0.0026295,0.00041788,0.0,0 STARLINK-4055,1 53161U 22083AF  22291.58334491  .00041788  00000-0  26295-2 0  9998,2 53161  53.2193 322.1868 0001930  43.9304 201.2845 15.08821921 15079,6917.936,95.439,541.136,538.465,0.0
53161.0,STARLINK-4055,PAYLOAD,2022-10-18 22:00:00,15.08830951,0.00018,53.2193,320.6887,49.9847,206.8291,0.0020076,0.000318,0.0,0 STARLINK-4055,1 53161U 22083AF  22291.91667824  .00031800  00000-0  20076-2 0  9999,2 53161  53.2193 320.6887 0001800  49.9847 206.8291 15.08830951  1307,6917.908,95.438,541.018,538.528,0.0
53161.0,STARLINK-4055,PAYLOAD,2022-10-19 06:00:00,15.08854834,0.0001966,53.2193,319.1935,51.2263,217.1848,-0.0024335,-0.00038825,0.0,0 STARLINK-4055,1 53161U 22083AF  22292.25001157 -.00038825  00000-0 -24335-2 0  9996,2 53161  53.2193 319.1935 0001966  51.2263 217.1848 15.08854834 15174,6917.835,95.437,541.06,538.34,0.0
53161.0,STARLINK-4055,PAYLOAD,2022-10-19 14:00:01,15.08826695,0.0002089,53.219,317.698,47.2757,232.731,0.0020226,0.00032037,0.0,0 STARLINK-4055,1 53161U 22083AF  22292.58334491  .00032037  00000-0  20226-2 0  9994,2 53161  53.2190 317.6980 0002089  47.2757 232.7310 15.08826695  1305,6917.920999999999,95.438,541.231,538.341,0.0
53161.0,STARLINK-4055,PAYLOAD,2022-10-19 22:00:00,15.0883394,0.0001924,53.2183,316.2012,50.28,241.331,0.0016812,0.00026565,0.0,0 STARLINK-4055,1 53161U 22083AF  22292.91667824  .00026565  00000-0  16812-2 0  9995,2 53161  53.2183 316.2012 0001924  50.2800 241.3310 15.08833940  1305,6917.899,95.438,541.095,538.433,0.0
53161.0,STARLINK-4055,PAYLOAD,2022-10-20 14:00:01,15.08843955,0.0002075,53.2186,313.2095,45.2168,269.581,-3.2727e-05,-8.09e-06,0.0,0 STARLINK-4055,1 53161U 22083AF  22293.58334491 -.00000809  00000-0 -32727-4 0  9990,2 53161  53.2186 313.2095 0002075  45.2168 269.5810 15.08843955 15371,6917.868,95.437,541.169,538.298,0.0
53161.0,STARLINK-4055,PAYLOAD,2022-10-20 22:00:00,15.08798992,0.0001899999999999,53.2189,311.7113,50.5232,275.8766,0.0028925,0.00045995,0.0,0 STARLINK-4055,1 53161U 22083AF  22293.91667824  .00045995  00000-0  28925-2 0  9992,2 53161  53.2189 311.7113 0001900  50.5232 275.8766 15.08798992  1303,6918.005999999999,95.44,541.185,538.556,0.0
53161.0,STARLINK-4055,PAYLOAD,2022-10-21 14:00:01,15.08842699,0.0002124,53.2187,308.7205,44.6481,304.9132,0.00097668,0.00015291,0.0,0 STARLINK-4055,1 53161U 22083AF  22294.58334491  .00015291  00000-0  97668-3 0  9994,2 53161  53.2187 308.7205 0002124  44.6481 304.9132 15.08842699  1303,6917.871999999999,95.437,541.206,538.268,0.0
53161.0,STARLINK-4055,PAYLOAD,2022-10-21 22:00:00,15.088531,0.0001992,53.2184,307.2231,49.419,311.7505,-0.0010904999999999,-0.00017608,0.0,0 STARLINK-4055,1 53161U 22083AF  22294.91667824 -.00017608  00000-0 -10905-2 0  9994,2 53161  53.2184 307.2231 0001992  49.4190 311.7505 15.08853100  1315,6917.84,95.437,541.0830000000002,538.327,0.0
53161.0,STARLINK-4055,PAYLOAD,2022-10-22 14:00:01,15.08842661,0.0002081,53.2191,304.2309,43.9169,340.4366,0.0003266999999999,4.916e-05,0.0,0 STARLINK-4055,1 53161U 22083AF  22295.58334491  .00004916  00000-0  32670-3 0  9999,2 53161  53.2191 304.2309 0002081  43.9169 340.4366 15.08842661  1304,6917.871999999999,95.437,541.177,538.298,0.0
